{"type": "FeatureCollection", "features": [ {"type": "Feature", "properties": {"norad_id": 29999, "name": "FENGYUN 1C DEB", "group": "fengyun-1c-debris", "lat": 41.88627543731016, "lon": 153.00607765259957, "alt_km": 685.896278022743, "timestamp": "2025-12-06T18:50:10.441572+00:00", "meta": {"OBJECT_NAME": "FENGYUN 1C DEB", "OBJECT_ID": "1999-025LZ", "EPOCH": "2025-12-06T04:43:27.203232", "MEAN_MOTION": 14.20120636, "ECCENTRICITY": 0.01893212, "INCLINATION": 98.5758, "RA_OF_ASC_NODE": 324.6581, "ARG_OF_PERICENTER": 145.4264, "MEAN_ANOMALY": 227.8419, "EPHEMERIS_TYPE": 0, "CLASSIFICATION_TYPE": "U", "NORAD_CAT_ID": 29999, "ELEMENT_SET_NO": 999, "REV_AT_EPOCH": 97631, "BSTAR": 0.00042087667, "MEAN_MOTION_DOT": 1.031e-05, "MEAN_MOTION_DDOT": 0}, "tle": {"line1": "1 29999U 99025LZ  25340.19684263  .00001031  00000+0  42088-3 0  9995", "line2": "2 29999  98.5758 324.6581 0189321 145.4264 227.8419 14.20120636976315"}}, "geometry": {"type": "Point", "coordinates": [153.00607765259957, 41.88627543731016]}}, {"type": "Feature", "properties": {"norad_id": 30001, "name": "FENGYUN 1C DEB", "group": "fengyun-1c-debris", "lat": 50.22368508467724, "lon": 44.64875043521638, "alt_km": 747.2012921615851, "timestamp": "2025-12-06T18:50:10.441586+00:00", "meta": {"OBJECT_NAME": "FENGYUN 1C DEB", "OBJECT_ID": "1999-025MA", "EPOCH": "2025-12-06T03:42:50.431104", "MEAN_MOTION": 14.38420366, "ECCENTRICITY": 0.00387672, "INCLINATION": 98.9603, "RA_OF_ASC_NODE": 54.9168, "ARG_OF_PERICENTER": 117.9142, "MEAN_ANOMALY": 272.659, "EPHEMERIS_TYPE": 0, "CLASSIFICATION_TYPE": "U", "NORAD_CAT_ID": 30001, "ELEMENT_SET_NO": 999, "REV_AT_EPOCH": 97337, "BSTAR": 0.0043117667, "MEAN_MOTION_DOT": 0.00013246, "MEAN_MOTION_DDOT": 0}, "tle": {"line1": "1 30001U 99025MA  25340.15475036  .00013246  00000+0  43118-2 0  9998", "line2": "2 30001  98.9603  54.9168 0038767 117.9142 272.6590 14.38420366973377"}}, "geometry": {"type": "Point", "coordinates": [44.64875043521638, 50.22368508467724]}}, {"type": "Feature", "properties": {"norad_id": 30003, "name": "FENGYUN 1C DEB", "group": "fengyun-1c-debris", "lat": -80.13426339956854, "lon": 31.54457295936487, "alt_km": 1027.026671090308, "timestamp": "2025-12-06T18:50:10.441596+00:00", "meta": {"OBJECT_NAME": "FENGYUN 1C DEB", "OBJECT_ID": "1999-025MC", "EPOCH": "2025-12-05T22:47:49.231968", "MEAN_MOTION": 13.85616798, "ECCENTRICITY": 0.01431862, "INCLINATION": 99.576, "RA_OF_ASC_NODE": 314.6033, "ARG_OF_PERICENTER": 137.8014, "MEAN_ANOMALY": 290.6395, "EPHEMERIS_TYPE": 0, "CLASSIFICATION_TYPE": "U", "NORAD_CAT_ID": 30003, "ELEMENT_SET_NO": 999, "REV_AT_EPOCH": 95394, "BSTAR": 0.00038512198, "MEAN_MOTION_DOT": 4.31e-06, "MEAN_MOTION_DDOT": 0}, "tle": {"line1": "1 30003U 99025MC  25339.94987537  .00000431  00000+0  38512-3 0  9994", "line2": "2 30003  99.5760 314.6033 0143186 137.8014 290.6395 13.85616798953949"}}, "geometry": {"type": "Point", "coordinates": [31.54457295936487, -80.13426339956854]}}, {"type": "Feature", "properties": {"norad_id": 30004, "name": "FENGYUN 1C DEB", "group": "fengyun-1c-debris", "lat": 24.647754995887908, "lon": -14.040696203297442, "alt_km": 860.0082608909606, "timestamp": "2025-12-06T18:50:10.441606+00:00", "meta": {"OBJECT_NAME": "FENGYUN 1C DEB", "OBJECT_ID": "1999-025MD", "EPOCH": "2025-12-06T00:10:44.660640", "MEAN_MOTION": 14.17031053, "ECCENTRICITY": 0.00387484, "INCLINATION": 99.223, "RA_OF_ASC_NODE": 160.878, "ARG_OF_PERICENTER": 1.8621, "MEAN_ANOMALY": 149.3789, "EPHEMERIS_TYPE": 0, "CLASSIFICATION_TYPE": "U", "NORAD_CAT_ID": 30004, "ELEMENT_SET_NO": 999, "REV_AT_EPOCH": 97211, "BSTAR": 0.0011778996, "MEAN_MOTION_DOT": 2.339e-05, "MEAN_MOTION_DDOT": 0}, "tle": {"line1": "1 30004U 99025MD  25340.00746135  .00002339  00000+0  11779-2 0  9995", "line2": "2 30004  99.2230 160.8780 0038748   1.8621 149.3789 14.17031053972118"}}, "geometry": {"type": "Point", "coordinates": [-14.040696203297442, 24.647754995887908]}}, {"type": "Feature", "properties": {"norad_id": 30005, "name": "FENGYUN 1C DEB", "group": "fengyun-1c-debris", "lat": -63.41156229472694, "lon": -37.789951904254, "alt_km": 1327.432190040533, "timestamp": "2025-12-06T18:50:10.441617+00:00", "meta": {"OBJECT_NAME": "FENGYUN 1C DEB", "OBJECT_ID": "1999-025ME", "EPOCH": "2025-12-05T14:45:36.605664", "MEAN_MOTION": 13.5219435, "ECCENTRICITY": 0.0346565, "INCLINATION": 99.3015, "RA_OF_ASC_NODE": 301.9984, "ARG_OF_PERICENTER": 111.3796, "MEAN_ANOMALY": 252.4689, "EPHEMERIS_TYPE": 0, "CLASSIFICATION_TYPE": "U", "NORAD_CAT_ID": 30005, "ELEMENT_SET_NO": 999, "REV_AT_EPOCH": 92850, "BSTAR": 0.0016253443, "MEAN_MOTION_DOT": 1.524e-05, "MEAN_MOTION_DDOT": 0}, "tle": {"line1": "1 30005U 99025ME  25339.61500701  .00001524  00000+0  16253-2 0  9995", "line2": "2 30005  99.3015 301.9984 0346565 111.3796 252.4689 13.52194350928501"}}, "geometry": {"type": "Point", "coordinates": [-37.789951904254, -63.41156229472694]}}, {"type": "Feature", "properties": {"norad_id": 30007, "name": "FENGYUN 1C DEB", "group": "fengyun-1c-debris", "lat": 32.73654233116491, "lon": -124.10891311942154, "alt_km": 758.1377062671854, "timestamp": "2025-12-06T18:50:10.441627+00:00", "meta": {"OBJECT_NAME": "FENGYUN 1C DEB", "OBJECT_ID": "1999-025MG", "EPOCH": "2025-12-06T05:55:44.292288", "MEAN_MOTION": 14.25333037, "ECCENTRICITY": 0.00656805, "INCLINATION": 99.1783, "RA_OF_ASC_NODE": 241.2949, "ARG_OF_PERICENTER": 32.8848, "MEAN_ANOMALY": 122.3594, "EPHEMERIS_TYPE": 0, "CLASSIFICATION_TYPE": "U", "NORAD_CAT_ID": 30007, "ELEMENT_SET_NO": 999, "REV_AT_EPOCH": 97263, "BSTAR": 0.0032209151, "MEAN_MOTION_DOT": 7.721e-05, "MEAN_MOTION_DDOT": 0}, "tle": {"line1": "1 30007U 99025MG  25340.24704042  .00007721  00000+0  32209-2 0  9996", "line2": "2 30007  99.1783 241.2949 0065680  32.8848 122.3594 14.25333037972632"}}, "geometry": {"type": "Point", "coordinates": [-124.10891311942154, 32.73654233116491]}}, {"type": "Feature", "properties": {"norad_id": 30008, "name": "FENGYUN 1C DEB", "group": "fengyun-1c-debris", "lat": 44.11549992258242, "lon": 125.53601664659033, "alt_km": 663.1397183775771, "timestamp": "2025-12-06T18:50:10.441637+00:00", "meta": {"OBJECT_NAME": "FENGYUN 1C DEB", "OBJECT_ID": "1999-025MH", "EPOCH": "2025-12-05T21:13:39.307008", "MEAN_MOTION": 14.66058524, "ECCENTRICITY": 0.0038504, "INCLINATION": 99.3682, "RA_OF_ASC_NODE": 295.2991, "ARG_OF_PERICENTER": 213.8004, "MEAN_ANOMALY": 212.4219, "EPHEMERIS_TYPE": 0, "CLASSIFICATION_TYPE": "U", "NORAD_CAT_ID": 30008, "ELEMENT_SET_NO": 999, "REV_AT_EPOCH": 98959, "BSTAR": 0.0037505989, "MEAN_MOTION_DOT": 0.00020804, "MEAN_MOTION_DDOT": 0}, "tle": {"line1": "1 30008U 99025MH  25339.88448272  .00020804  00000+0  37506-2 0  9997", "line2": "2 30008  99.3682 295.2991 0038504 213.8004 212.4219 14.66058524989597"}}, "geometry": {"type": "Point", "coordinates": [125.53601664659033, 44.11549992258242]}}, {"type": "Feature", "properties": {"norad_id": 30009, "name": "FENGYUN 1C DEB", "group": "fengyun-1c-debris", "lat": 67.79224934356648, "lon": 12.86326338323788, "alt_km": 859.8563117869644, "timestamp": "2025-12-06T18:50:10.441647+00:00", "meta": {"OBJECT_NAME": "FENGYUN 1C DEB", "OBJECT_ID": "1999-025MJ", "EPOCH": "2025-12-06T03:07:30.494784", "MEAN_MOTION": 14.04833864, "ECCENTRICITY": 0.00638235, "INCLINATION": 99.0151, "RA_OF_ASC_NODE": 35.097, "ARG_OF_PERICENTER": 354.3557, "MEAN_ANOMALY": 5.6884, "EPHEMERIS_TYPE": 0, "CLASSIFICATION_TYPE": "U", "NORAD_CAT_ID": 30009, "ELEMENT_SET_NO": 999, "REV_AT_EPOCH": 96390, "BSTAR": 0.0010026911, "MEAN_MOTION_DOT": 1.594e-05, "MEAN_MOTION_DDOT": 0}, "tle": {"line1": "1 30009U 99025MJ  25340.13021406  .00001594  00000+0  10027-2 0  9998", "line2": "2 30009  99.0151  35.0970 0063823 354.3557   5.6884 14.04833864963906"}}, "geometry": {"type": "Point", "coordinates": [12.86326338323788, 67.79224934356648]}}, {"type": "Feature", "properties": {"norad_id": 30010, "name": "FENGYUN 1C DEB", "group": "fengyun-1c-debris", "lat": -8.645539399604337, "lon": -8.648862395785756, "alt_km": 771.3386637265794, "timestamp": "2025-12-06T18:50:10.441657+00:00", "meta": {"OBJECT_NAME": "FENGYUN 1C DEB", "OBJECT_ID": "1999-025MK", "EPOCH": "2025-12-06T06:58:54.625728", "MEAN_MOTION": 14.24980766, "ECCENTRICITY": 0.00724619, "INCLINATION": 99.0701, "RA_OF_ASC_NODE": 172.2327, "ARG_OF_PERICENTER": 228.0635, "MEAN_ANOMALY": 308.6591, "EPHEMERIS_TYPE": 0, "CLASSIFICATION_TYPE": "U", "NORAD_CAT_ID": 30010, "ELEMENT_SET_NO": 999, "REV_AT_EPOCH": 98168, "BSTAR": 0.00027085799, "MEAN_MOTION_DOT": 6.04e-06, "MEAN_MOTION_DDOT": 0}, "tle": {"line1": "1 30010U 99025MK  25340.29091002  .00000604  00000+0  27086-3 0  9991", "line2": "2 30010  99.0701 172.2327 0072461 228.0635 308.6591 14.24980766981683"}}, "geometry": {"type": "Point", "coordinates": [-8.648862395785756, -8.645539399604337]}}, {"type": "Feature", "properties": {"norad_id": 30012, "name": "FENGYUN 1C DEB", "group": "fengyun-1c-debris", "lat": -78.43634623187019, "lon": 159.33935909051854, "alt_km": 970.1121826388071, "timestamp": "2025-12-06T18:50:10.441667+00:00", "meta": {"OBJECT_NAME": "FENGYUN 1C DEB", "OBJECT_ID": "1999-025MM", "EPOCH": "2025-12-06T02:04:24.261024", "MEAN_MOTION": 13.85758109, "ECCENTRICITY": 0.0136892, "INCLINATION": 99.4651, "RA_OF_ASC_NODE": 33.2516, "ARG_OF_PERICENTER": 163.3143, "MEAN_ANOMALY": 215.9395, "EPHEMERIS_TYPE": 0, "CLASSIFICATION_TYPE": "U", "NORAD_CAT_ID": 30012, "ELEMENT_SET_NO": 999, "REV_AT_EPOCH": 95456, "BSTAR": 0.00048244147, "MEAN_MOTION_DOT": 5.49e-06, "MEAN_MOTION_DDOT": 0}, "tle": {"line1": "1 30012U 99025MM  25340.08639191  .00000549  00000+0  48244-3 0  9994", "line2": "2 30012  99.4651  33.2516 0136892 163.3143 215.9395 13.85758109954562"}}, "geometry": {"type": "Point", "coordinates": [159.33935909051854, -78.43634623187019]}}]}